[
  {
    "COMMENT": "GENERATED VIA SPACETRACK.ORG API",
    "ORIGINATOR": "18 SPCS",
    "NORAD_CAT_ID": "41335",
    "OBJECT_NAME": "SENTINEL 3A",
    "OBJECT_TYPE": "PAYLOAD",
    "CLASSIFICATION_TYPE": "U",
    "INTLDES": "16011A",
    "EPOCH": "2023-08-23 11:32:59",
    "EPOCH_MICROSECONDS": "440992",
    "MEAN_MOTION": "14.26734705",
    "ECCENTRICITY": "0.0000963",
    "INCLINATION": "98.6331",
    "RA_OF_ASC_NODE": "301.5326",
    "ARG_OF_PERICENTER": "101.0795",
    "MEAN_ANOMALY": "259.0493",
    "EPHEMERIS_TYPE": "0",
    "ELEMENT_SET_NO": "999",
    "REV_AT_EPOCH": "39137",
    "BSTAR": "0.000079275",
    "MEAN_MOTION_DOT": "0.00000148",
    "MEAN_MOTION_DDOT": "0",
    "FILE": "3987722",
    "TLE_LINE0": "0 SENTINEL 3A",
    "TLE_LINE1": "1 41335U 16011A   23235.48124353  .00000148  00000-0  79275-4 0  9997",
    "TLE_LINE2": "2 41335  98.6331 301.5326 0000963 101.0795 259.0493 14.26734705391373",
    "OBJECT_ID": "2016-011A",
    "OBJECT_NUMBER": "41335",
    "SEMIMAJOR_AXIS": "7180.803",
    "PERIOD": "100.930",
    "APOGEE": "803.360",
    "PERIGEE": "801.977",
    "DECAYED": "0"
  },
  {
    "COMMENT": "GENERATED VIA SPACETRACK.ORG API",
    "ORIGINATOR": "18 SPCS",
    "NORAD_CAT_ID": "41335",
    "OBJECT_NAME": "SENTINEL 3A",
    "OBJECT_TYPE": "PAYLOAD",
    "CLASSIFICATION_TYPE": "U",
    "INTLDES": "16011A",
    "EPOCH": "2023-08-24 17:50:45",
    "EPOCH_MICROSECONDS": "547008",
    "MEAN_MOTION": "14.26735207",
    "ECCENTRICITY": "0.0000967",
    "INCLINATION": "98.6329",
    "RA_OF_ASC_NODE": "302.7779",
    "ARG_OF_PERICENTER": "102.062",
    "MEAN_ANOMALY": "258.0669",
    "EPHEMERIS_TYPE": "0",
    "ELEMENT_SET_NO": "999",
    "REV_AT_EPOCH": "39155",
    "BSTAR": "0.000076971",
    "MEAN_MOTION_DOT": "0.00000143",
    "MEAN_MOTION_DDOT": "0",
    "FILE": "3988017",
    "TLE_LINE0": "0 SENTINEL 3A",
    "TLE_LINE1": "1 41335U 16011A   23236.74358272  .00000143  00000-0  76971-4 0  9991",
    "TLE_LINE2": "2 41335  98.6329 302.7779 0000967 102.0620 258.0669 14.26735207391559",
    "OBJECT_ID": "2016-011A",
    "OBJECT_NUMBER": "41335",
    "SEMIMAJOR_AXIS": "7180.802",
    "PERIOD": "100.930",
    "APOGEE": "803.361",
    "PERIGEE": "801.972",
    "DECAYED": "0"
  },
  {
    "COMMENT": "GENERATED VIA SPACETRACK.ORG API",
    "ORIGINATOR": "18 SPCS",
    "NORAD_CAT_ID": "41335",
    "OBJECT_NAME": "SENTINEL 3A",
    "OBJECT_TYPE": "PAYLOAD",
    "CLASSIFICATION_TYPE": "U",
    "INTLDES": "16011A",
    "EPOCH": "2023-08-24 21:12:43",
    "EPOCH_MICROSECONDS": "998912",
    "MEAN_MOTION": "14.26735261",
    "ECCENTRICITY": "0.000097",
    "INCLINATION": "98.6329",
    "RA_OF_ASC_NODE": "302.9163",
    "ARG_OF_PERICENTER": "102.6013",
    "MEAN_ANOMALY": "257.5276",
    "EPHEMERIS_TYPE": "0",
    "ELEMENT_SET_NO": "999",
    "REV_AT_EPOCH": "39157",
    "BSTAR": "0.000078352",
    "MEAN_MOTION_DOT": "0.00000146",
    "MEAN_MOTION_DDOT": "0",
    "FILE": "3988199",
    "TLE_LINE0": "0 SENTINEL 3A",
    "TLE_LINE1": "1 41335U 16011A   23236.88384258  .00000146  00000-0  78352-4 0  9997",
    "TLE_LINE2": "2 41335  98.6329 302.9163 0000970 102.6013 257.5276 14.26735261391574",
    "OBJECT_ID": "2016-011A",
    "OBJECT_NUMBER": "41335",
    "SEMIMAJOR_AXIS": "7180.801",
    "PERIOD": "100.930",
    "APOGEE": "803.363",
    "PERIGEE": "801.970",
    "DECAYED": "0"
  },
  {
    "COMMENT": "GENERATED VIA SPACETRACK.ORG API",
    "ORIGINATOR": "18 SPCS",
    "NORAD_CAT_ID": "41335",
    "OBJECT_NAME": "SENTINEL 3A",
    "OBJECT_TYPE": "PAYLOAD",
    "CLASSIFICATION_TYPE": "U",
    "INTLDES": "16011A",
    "EPOCH": "2023-08-25 02:15:41",
    "EPOCH_MICROSECONDS": "678496",
    "MEAN_MOTION": "14.26735341",
    "ECCENTRICITY": "0.0000968",
    "INCLINATION": "98.6329",
    "RA_OF_ASC_NODE": "303.1238",
    "ARG_OF_PERICENTER": "102.6645",
    "MEAN_ANOMALY": "257.4644",
    "EPHEMERIS_TYPE": "0",
    "ELEMENT_SET_NO": "999",
    "REV_AT_EPOCH": "39160",
    "BSTAR": "0.000076546",
    "MEAN_MOTION_DOT": "0.00000142",
    "MEAN_MOTION_DDOT": "0",
    "FILE": "3988223",
    "TLE_LINE0": "0 SENTINEL 3A",
    "TLE_LINE1": "1 41335U 16011A   23237.09423239  .00000142  00000-0  76546-4 0  9993",
    "TLE_LINE2": "2 41335  98.6329 303.1238 0000968 102.6645 257.4644 14.26735341391609",
    "OBJECT_ID": "2016-011A",
    "OBJECT_NUMBER": "41335",
    "SEMIMAJOR_AXIS": "7180.801",
    "PERIOD": "100.930",
    "APOGEE": "803.361",
    "PERIGEE": "801.971",
    "DECAYED": "0"
  },
  {
    "COMMENT": "GENERATED VIA SPACETRACK.ORG API",
    "ORIGINATOR": "18 SPCS",
    "NORAD_CAT_ID": "41335",
    "OBJECT_NAME": "SENTINEL 3A",
    "OBJECT_TYPE": "PAYLOAD",
    "CLASSIFICATION_TYPE": "U",
    "INTLDES": "16011A",
    "EPOCH": "2023-08-25 10:40:37",
    "EPOCH_MICROSECONDS": "813440",
    "MEAN_MOTION": "14.26735439",
    "ECCENTRICITY": "0.0000968",
    "INCLINATION": "98.6329",
    "RA_OF_ASC_NODE": "303.4697",
    "ARG_OF_PERICENTER": "102.4549",
    "MEAN_ANOMALY": "257.674",
    "EPHEMERIS_TYPE": "0",
    "ELEMENT_SET_NO": "999",
    "REV_AT_EPOCH": "39165",
    "BSTAR": "0.000075131",
    "MEAN_MOTION_DOT": "0.00000138",
    "MEAN_MOTION_DDOT": "0",
    "FILE": "3988506",
    "TLE_LINE0": "0 SENTINEL 3A",
    "TLE_LINE1": "1 41335U 16011A   23237.44488210  .00000138  00000-0  75131-4 0  9996",
    "TLE_LINE2": "2 41335  98.6329 303.4697 0000968 102.4549 257.6740 14.26735439391654",
    "OBJECT_ID": "2016-011A",
    "OBJECT_NUMBER": "41335",
    "SEMIMAJOR_AXIS": "7180.801",
    "PERIOD": "100.930",
    "APOGEE": "803.361",
    "PERIGEE": "801.971",
    "DECAYED": "0"
  },
  {
    "COMMENT": "GENERATED VIA SPACETRACK.ORG API",
    "ORIGINATOR": "18 SPCS",
    "NORAD_CAT_ID": "41335",
    "OBJECT_NAME": "SENTINEL 3A",
    "OBJECT_TYPE": "PAYLOAD",
    "CLASSIFICATION_TYPE": "U",
    "INTLDES": "16011A",
    "EPOCH": "2023-08-25 14:02:36",
    "EPOCH_MICROSECONDS": "268800",
    "MEAN_MOTION": "14.26735485",
    "ECCENTRICITY": "0.0000969",
    "INCLINATION": "98.6329",
    "RA_OF_ASC_NODE": "303.6081",
    "ARG_OF_PERICENTER": "102.6715",
    "MEAN_ANOMALY": "257.4574",
    "EPHEMERIS_TYPE": "0",
    "ELEMENT_SET_NO": "999",
    "REV_AT_EPOCH": "39167",
    "BSTAR": "0.000073765",
    "MEAN_MOTION_DOT": "0.00000135",
    "MEAN_MOTION_DDOT": "0",
    "FILE": "3988765",
    "TLE_LINE0": "0 SENTINEL 3A",
    "TLE_LINE1": "1 41335U 16011A   23237.58514200  .00000135  00000-0  73765-4 0  9998",
    "TLE_LINE2": "2 41335  98.6329 303.6081 0000969 102.6715 257.4574 14.26735485391677",
    "OBJECT_ID": "2016-011A",
    "OBJECT_NUMBER": "41335",
    "SEMIMAJOR_AXIS": "7180.801",
    "PERIOD": "100.930",
    "APOGEE": "803.361",
    "PERIGEE": "801.970",
    "DECAYED": "0"
  },
  {
    "COMMENT": "GENERATED VIA SPACETRACK.ORG API",
    "ORIGINATOR": "18 SPCS",
    "NORAD_CAT_ID": "41335",
    "OBJECT_NAME": "SENTINEL 3A",
    "OBJECT_TYPE": "PAYLOAD",
    "CLASSIFICATION_TYPE": "U",
    "INTLDES": "16011A",
    "EPOCH": "2023-08-25 17:24:34",
    "EPOCH_MICROSECONDS": "720704",
    "MEAN_MOTION": "14.2673552",
    "ECCENTRICITY": "0.0000967",
    "INCLINATION": "98.6329",
    "RA_OF_ASC_NODE": "303.7464",
    "ARG_OF_PERICENTER": "102.6754",
    "MEAN_ANOMALY": "257.4534",
    "EPHEMERIS_TYPE": "0",
    "ELEMENT_SET_NO": "999",
    "REV_AT_EPOCH": "39169",
    "BSTAR": "0.000071618",
    "MEAN_MOTION_DOT": "0.0000013",
    "MEAN_MOTION_DDOT": "0",
    "FILE": "3988822",
    "TLE_LINE0": "0 SENTINEL 3A",
    "TLE_LINE1": "1 41335U 16011A   23237.72540186  .00000130  00000-0  71618-4 0  9996",
    "TLE_LINE2": "2 41335  98.6329 303.7464 0000967 102.6754 257.4534 14.26735520391692",
    "OBJECT_ID": "2016-011A",
    "OBJECT_NUMBER": "41335",
    "SEMIMAJOR_AXIS": "7180.800",
    "PERIOD": "100.930",
    "APOGEE": "803.360",
    "PERIGEE": "801.971",
    "DECAYED": "0"
  },
  {
    "COMMENT": "GENERATED VIA SPACETRACK.ORG API",
    "ORIGINATOR": "18 SPCS",
    "NORAD_CAT_ID": "41335",
    "OBJECT_NAME": "SENTINEL 3A",
    "OBJECT_TYPE": "PAYLOAD",
    "CLASSIFICATION_TYPE": "U",
    "INTLDES": "16011A",
    "EPOCH": "2023-08-25 20:46:33",
    "EPOCH_MICROSECONDS": "170880",
    "MEAN_MOTION": "14.26735584",
    "ECCENTRICITY": "0.0000971",
    "INCLINATION": "98.6328",
    "RA_OF_ASC_NODE": "303.8848",
    "ARG_OF_PERICENTER": "102.9175",
    "MEAN_ANOMALY": "257.2114",
    "EPHEMERIS_TYPE": "0",
    "ELEMENT_SET_NO": "999",
    "REV_AT_EPOCH": "39171",
    "BSTAR": "0.000073544",
    "MEAN_MOTION_DOT": "0.00000134",
    "MEAN_MOTION_DDOT": "0",
    "FILE": "3989051",
    "TLE_LINE0": "0 SENTINEL 3A",
    "TLE_LINE1": "1 41335U 16011A   23237.86566170  .00000134  00000-0  73544-4 0  9996",
    "TLE_LINE2": "2 41335  98.6328 303.8848 0000971 102.9175 257.2114 14.26735584391718",
    "OBJECT_ID": "2016-011A",
    "OBJECT_NUMBER": "41335",
    "SEMIMAJOR_AXIS": "7180.800",
    "PERIOD": "100.930",
    "APOGEE": "803.363",
    "PERIGEE": "801.968",
    "DECAYED": "0"
  }
]